[Satellite]
VERSION=1.1
NAME=SnugLite
NICKNAME=SnugLite
TLE1=1 43784U 18099AC  22335.75522353  .00002047  00000-0  17887-3 0  9997
TLE2=2 43784  97.5988  37.7976 0015591  68.4299 291.8583 14.97766613218098
STATUS=0
